<?xml version="1.0" encoding="UTF-8" standalone="no"?>
<gpx version="1.1" creator="Trailforks.com" xmlns="http://www.topografix.com/GPX/1/1" xmlns:xsi="http://www.w3.org/2001/XMLSchema-instance" xsi:schemaLocation="http://www.topografix.com/GPX/1/1 http://www.topografix.com/GPX/1/1/gpx.xsd">
<metadata>
<name>Goat Island Trailhead Access Trailforks Trail</name>
<link href="https://www.trailforks.com/">
<text>Trailforks</text>
</link>
</metadata>
<trk>
<name>
Goat Island Trailhead Access
</name>
<trkseg>
<trkpt lat="32.63254" lon="-96.66234">
<ele>119.2</ele>
<time>2022-06-20T13:01:58-07:00</time>
</trkpt>
<trkpt lat="32.63271" lon="-96.66237">
<ele>119.2</ele>
<time>2022-06-20T13:01:59-07:00</time>
</trkpt>
<trkpt lat="32.63295" lon="-96.66228">
<ele>119.2</ele>
<time>2022-06-20T13:02:00-07:00</time>
</trkpt>
<trkpt lat="32.63304" lon="-96.6623">
<ele>119.1</ele>
<time>2022-06-20T13:02:01-07:00</time>
</trkpt>
<trkpt lat="32.63309" lon="-96.66235">
<ele>119.1</ele>
<time>2022-06-20T13:02:02-07:00</time>
</trkpt>
<trkpt lat="32.63313" lon="-96.66234">
<ele>119.1</ele>
<time>2022-06-20T13:02:03-07:00</time>
</trkpt>
<trkpt lat="32.63324" lon="-96.66225">
<ele>119.1</ele>
<time>2022-06-20T13:02:04-07:00</time>
</trkpt>
<trkpt lat="32.63335" lon="-96.6622">
<ele>119.1</ele>
<time>2022-06-20T13:02:05-07:00</time>
</trkpt>
<trkpt lat="32.63362" lon="-96.66214">
<ele>119</ele>
<time>2022-06-20T13:02:06-07:00</time>
</trkpt>
<trkpt lat="32.63386" lon="-96.66213">
<ele>119</ele>
<time>2022-06-20T13:02:07-07:00</time>
</trkpt>
<trkpt lat="32.63399" lon="-96.66209">
<ele>119</ele>
<time>2022-06-20T13:02:08-07:00</time>
</trkpt>
</trkseg>
</trk>
</gpx>
